OBJECT_NAME,OBJECT_ID,EPOCH,MEAN_MOTION,ECCENTRICITY,INCLINATION,RA_OF_ASC_NODE,ARG_OF_PERICENTER,MEAN_ANOMALY,EPHEMERIS_TYPE,CLASSIFICATION_TYPE,NORAD_CAT_ID,ELEMENT_SET_NO,REV_AT_EPOCH,BSTAR,MEAN_MOTION_DOT,MEAN_MOTION_DDOT
STARLINK-37938,2026-135Y,2026-07-04T00:32:16.762272,15.80942371,.00009743,97.2839,213.0706,110.5045,249.6328,0,U,69568,999,292,.13961879E-2,.277579E-2,0
STARLINK-37924,2026-135Z,2026-07-04T00:28:18.179040,15.80922732,.00012937,97.2840,213.0739,99.8735,260.2679,0,U,69569,999,292,.14663731E-2,.291756E-2,0
SHIJIAN-31 (SJ-31),2026-136A,2026-07-04T03:24:14.274432,1.92225650,.6940723,63.4825,354.3323,171.7995,212.4178,0,U,69570,999,41,0,-.149E-5,0
CZ-3B R/B,2026-136B,2026-07-02T13:09:44.229312,2.30436015,.7316421,63.4332,352.9933,171.4641,217.0691,0,U,69571,999,38,.41392E-3,.289351E-2,.2827E-4
GUOWANG OBJECT A,2026-137A,2026-07-04T06:19:59.342592,13.89813412,.00126449,49.9994,187.4054,281.9824,77.9657,0,U,69572,999,239,.46473611E-4,-.88E-6,0
GUOWANG OBJECT B,2026-137B,2026-07-04T06:15:47.203200,13.89804927,.00118447,50.0015,187.3886,281.1445,78.8122,0,U,69573,999,240,-.9786213E-5,-.158E-5,0
GUOWANG OBJECT C,2026-137C,2026-07-04T01:03:38.237184,13.89815737,.0011939,49.9957,188.2290,281.9173,78.0386,0,U,69574,999,237,-.1279541E-4,-.162E-5,0
GUOWANG OBJECT D,2026-137D,2026-07-03T16:24:22.234752,13.89829029,.00111482,49.9946,189.6528,279.5557,80.4081,0,U,69575,999,232,.21708546E-4,-.119E-5,0
GUOWANG OBJECT E,2026-137E,2026-07-04T06:11:16.714176,13.89825933,.00112472,50.0031,187.3789,284.2931,75.6718,0,U,69576,999,240,-.46854787E-4,-.204E-5,0
GUOWANG OBJECT F,2026-137F,2026-07-04T06:09:59.958144,13.89810329,.00108568,50.0022,187.3723,283.9931,75.9760,0,U,69577,999,240,-.41945817E-4,-.198E-5,0
GUOWANG OBJECT G,2026-137G,2026-07-04T06:08:39.989760,13.89795270,.00108051,49.9950,187.3494,284.0312,75.9385,0,U,69578,999,240,-.57438139E-4,-.217E-5,0
GUOWANG OBJECT H,2026-137H,2026-06-25T11:38:14.756064,13.92076941,.0010122,49.9967,222.2731,259.8752,100.1006,0,U,69579,999,118,.1427E-3,.37E-6,0
GUOWANG OBJECT J,2026-137J,2026-06-27T06:41:01.268160,13.91997107,.0011832,49.9961,215.0979,257.3150,102.6427,0,U,69580,999,143,.13174E-3,.22E-6,0
CZ-12 R/B,2026-137K,2026-07-04T06:57:16.126272,14.11692112,.00774401,49.9871,184.8228,172.3983,187.8117,0,U,69581,999,242,.9435466E-5,-.137E-5,0
CENTISPACE-1 GROUP 05 OBJECT A,2026-138A,2026-07-04T07:14:31.307136,14.15472561,.00105644,55.1393,217.9715,319.2877,40.7307,0,U,69582,999,244,-.96427533E-4,-.343E-5,0
CENTISPACE-1 GROUP 05 OBJECT B,2026-138B,2026-07-04T05:29:39.957216,14.15653544,.00095339,55.1390,218.2190,319.1809,40.8450,0,U,69583,999,243,-.11916132E-3,-.388E-5,0
CENTISPACE-1 GROUP 05 OBJECT C,2026-138C,2026-07-04T05:28:11.042976,14.15737639,.00094605,55.1396,218.2221,320.8974,39.1316,0,U,69584,999,243,-.11847452E-3,-.387E-5,0
CENTISPACE-1 GROUP 05 OBJECT D,2026-138D,2026-07-04T07:06:53.744832,14.15924432,.00090119,55.1398,217.9415,320.0419,39.9891,0,U,69585,999,244,-.14951976E-3,-.45E-5,0
CENTISPACE-1 GROUP 05 OBJECT E,2026-138E,2026-07-04T07:05:44.801952,14.15991070,.00087668,55.1391,217.9445,320.4004,39.6329,0,U,69586,999,244,-.13734579E-3,-.426E-5,0
CENTISPACE-1 GROUP 05 OBJECT F,2026-138F,2026-07-04T07:06:49.857696,14.15914237,.00086321,55.1394,217.9499,324.8713,35.1692,0,U,69587,999,244,-.13755788E-3,-.426E-5,0
CENTISPACE-1 GROUP 05 OBJECT G,2026-138G,2026-07-04T07:03:56.198880,14.16078867,.0007911,55.1395,217.9364,324.4206,35.6240,0,U,69588,999,244,-.13847949E-3,-.429E-5,0
SPACEMOBILE-008,2026-139A,2026-07-04T01:17:27.716928,15.12789669,.00044831,52.9937,185.9907,29.1107,331.0134,0,U,69589,999,253,.33918065E-4,.301E-5,0
SPACEMOBILE-009,2026-139B,2026-07-04T01:19:09.348384,15.12682985,.0004696,52.9927,185.9939,23.9462,336.1747,0,U,69590,999,253,.34670917E-4,.313E-5,0
SPACEMOBILE-010,2026-139C,2026-07-03T23:46:41.708064,15.12514031,.00045532,52.9931,186.3077,14.6312,345.4810,0,U,69591,999,253,.36224861E-4,.338E-5,0
KUIPER-00423,2026-140A,2026-07-04T01:47:57.757920,15.38365383,.00138655,51.8818,316.9069,227.2926,132.6894,0,U,69592,999,383,.77762472E-3,.2969E-3,0
KUIPER-00428,2026-140B,2026-07-04T00:00:02.999808,15.36707463,.00075957,51.8819,317.5706,353.9697,163.8280,0,U,69593,999,375,-.41820036E-4,-.1916E-4,0
KUIPER-00481,2026-140C,2026-07-03T22:50:31.481664,15.37728987,.00114021,51.8795,317.5749,234.0320,125.9610,0,U,69594,999,381,.1316842E-2,.49593E-3,0
KUIPER-00490,2026-140D,2026-07-04T02:11:23.602560,15.37702969,.00060696,51.8792,317.0055,297.2434,62.7934,0,U,69595,999,383,.9191554E-3,.34346E-3,0
KUIPER-00493,2026-140E,2026-07-03T18:42:44.148960,15.36447035,.00073565,51.8832,318.6709,356.6165,3.4771,0,U,69596,999,378,.86266748E-3,.30912E-3,0
KUIPER-00496,2026-140F,2026-07-03T22:01:55.667424,15.34716363,.00094212,51.8790,318.0905,12.9806,347.1420,0,U,69597,999,380,.97411772E-3,.33084E-3,0
