STARLINK-37938          
1 69568U 26135Y   26185.02241623  .00277579  00000+0  13962-2 0  9992
2 69568  97.2839 213.0706 0000974 110.5045 249.6328 15.80942371  2926
STARLINK-37924          
1 69569U 26135Z   26185.01965485  .00291756  00000+0  14664-2 0  9994
2 69569  97.2840 213.0739 0001293  99.8735 260.2679 15.80922732  2922
SHIJIAN-31 (SJ-31)      
1 69570U 26136A   26185.14183188 -.00000149  00000+0  00000+0 0  9994
2 69570  63.4825 354.3323 6940723 171.7995 212.4178  1.92225650   412
CZ-3B R/B               
1 69571U 26136B   26183.54842858  .00289351  28270-4  41392-3 0  9993
2 69571  63.4332 352.9933 7316421 171.4641 217.0691  2.30436015   384
GUOWANG OBJECT A        
1 69572U 26137A   26185.26388128 -.00000088  00000+0  46474-4 0  9993
2 69572  49.9994 187.4054 0012644 281.9824  77.9657 13.89813412  2390
GUOWANG OBJECT B        
1 69573U 26137B   26185.26096300 -.00000158  00000+0 -97862-5 0  9999
2 69573  50.0015 187.3886 0011844 281.1445  78.8122 13.89804927  2402
GUOWANG OBJECT C        
1 69574U 26137C   26185.04419256 -.00000162  00000+0 -12795-4 0  9991
2 69574  49.9957 188.2290 0011939 281.9173  78.0386 13.89815737  2376
GUOWANG OBJECT D        
1 69575U 26137D   26184.68359068 -.00000119  00000+0  21709-4 0  9991
2 69575  49.9946 189.6528 0011148 279.5557  80.4081 13.89829029  2328
GUOWANG OBJECT E        
1 69576U 26137E   26185.25783234 -.00000204  00000+0 -46855-4 0  9997
2 69576  50.0031 187.3789 0011247 284.2931  75.6718 13.89825933  2402
GUOWANG OBJECT F        
1 69577U 26137F   26185.25694396 -.00000198  00000+0 -41946-4 0  9996
2 69577  50.0022 187.3723 0010856 283.9931  75.9760 13.89810329  2405
GUOWANG OBJECT G        
1 69578U 26137G   26185.25601840 -.00000217  00000+0 -57438-4 0  9994
2 69578  49.9950 187.3494 0010805 284.0312  75.9385 13.89795270  2407
GUOWANG OBJECT H        
1 69579U 26137H   26176.48489301  .00000037  00000+0  14270-3 0  9990
2 69579  49.9967 222.2731 0010122 259.8752 100.1006 13.92076941  1185
GUOWANG OBJECT J        
1 69580U 26137J   26178.27848690  .00000022  00000+0  13174-3 0  9997
2 69580  49.9961 215.0979 0011832 257.3150 102.6427 13.91997107  1436
CZ-12 R/B               
1 69581U 26137K   26185.28976998 -.00000137  00000+0  94355-5 0  9990
2 69581  49.9871 184.8228 0077440 172.3983 187.8117 14.11692112  2426
CENTISPACE-1 GROUP 05 O*
1 69582U 26138A   26185.30175124 -.00000343  00000+0 -96428-4 0  9999
2 69582  55.1393 217.9715 0010564 319.2877  40.7307 14.15472561  2440
CENTISPACE-1 GROUP 05 O*
1 69583U 26138B   26185.22893469 -.00000388  00000+0 -11916-3 0  9997
2 69583  55.1390 218.2190 0009533 319.1809  40.8450 14.15653544  2438
CENTISPACE-1 GROUP 05 O*
1 69584U 26138C   26185.22790559 -.00000387  00000+0 -11847-3 0  9996
2 69584  55.1396 218.2221 0009460 320.8974  39.1316 14.15737639  2431
CENTISPACE-1 GROUP 05 O*
1 69585U 26138D   26185.29645538 -.00000450  00000+0 -14952-3 0  9991
2 69585  55.1398 217.9415 0009011 320.0419  39.9891 14.15924432  2449
CENTISPACE-1 GROUP 05 O*
1 69586U 26138E   26185.29565743 -.00000426  00000+0 -13735-3 0  9992
2 69586  55.1391 217.9445 0008766 320.4004  39.6329 14.15991070  2441
CENTISPACE-1 GROUP 05 O*
1 69587U 26138F   26185.29641039 -.00000426  00000+0 -13756-3 0  9999
2 69587  55.1394 217.9499 0008632 324.8713  35.1692 14.15914237  2445
CENTISPACE-1 GROUP 05 O*
1 69588U 26138G   26185.29440045 -.00000429  00000+0 -13848-3 0  9999
2 69588  55.1395 217.9364 0007911 324.4206  35.6240 14.16078867  2445
SPACEMOBILE-008         
1 69589U 26139A   26185.05379302  .00000301  00000+0  33918-4 0  9990
2 69589  52.9937 185.9907 0004483  29.1107 331.0134 15.12789669  2531
SPACEMOBILE-009         
1 69590U 26139B   26185.05496931  .00000313  00000+0  34671-4 0  9990
2 69590  52.9927 185.9939 0004696  23.9462 336.1747 15.12682985  2538
SPACEMOBILE-010         
1 69591U 26139C   26184.99076051  .00000338  00000+0  36225-4 0  9994
2 69591  52.9931 186.3077 0004553  14.6312 345.4810 15.12514031  2535
KUIPER-00423            
1 69592U 26140A   26185.07497405  .00029690  00000+0  77762-3 0  9999
2 69592  51.8818 316.9069 0013865 227.2926 132.6894 15.38365383  3833
KUIPER-00428            
1 69593U 26140B   26185.00003472 -.00001916  00000+0 -41820-4 0  9990
2 69593  51.8819 317.5706 0007595 353.9697 163.8280 15.36707463  3758
KUIPER-00481            
1 69594U 26140C   26184.95175326  .00049593  00000+0  13168-2 0  9995
2 69594  51.8795 317.5749 0011402 234.0320 125.9610 15.37728987  3811
KUIPER-00490            
1 69595U 26140D   26185.09124540  .00034346  00000+0  91916-3 0  9992
2 69595  51.8792 317.0055 0006069 297.2434  62.7934 15.37702969  3835
KUIPER-00493            
1 69596U 26140E   26184.77967765  .00030912  00000+0  86267-3 0  9999
2 69596  51.8832 318.6709 0007356 356.6165   3.4771 15.36447035  3789
KUIPER-00496            
1 69597U 26140F   26184.91800541  .00033084  00000+0  97412-3 0  9991
2 69597  51.8790 318.0905 0009421  12.9806 347.1420 15.34716363  3807
